[{"OBJECT_NAME":"HELIOS 1B","OBJECT_ID":"1999-064A","EPOCH":"2026-03-12T17:46:17.994720","MEAN_MOTION":14.87713347,"ECCENTRICITY":0.00024167,"INCLINATION":98.1686,"RA_OF_ASC_NODE":334.0732,"ARG_OF_PERICENTER":70.9295,"MEAN_ANOMALY":289.2182,"EPHEMERIS_TYPE":0,"CLASSIFICATION_TYPE":"U","NORAD_CAT_ID":25977,"ELEMENT_SET_NO":999,"REV_AT_EPOCH":68571,"BSTAR":0.00026573491,"MEAN_MOTION_DOT":2.363e-5,"MEAN_MOTION_DDOT":0},{"OBJECT_NAME":"TERRA","OBJECT_ID":"1999-068A","EPOCH":"2026-03-13T00:18:45.257184","MEAN_MOTION":14.61018741,"ECCENTRICITY":0.00029,"INCLINATION":97.9587,"RA_OF_ASC_NODE":125.3207,"ARG_OF_PERICENTER":143.9108,"MEAN_ANOMALY":332.0707,"EPHEMERIS_TYPE":0,"CLASSIFICATION_TYPE":"U","NORAD_CAT_ID":25994,"ELEMENT_SET_NO":999,"REV_AT_EPOCH":39556,"BSTAR":0.00011473,"MEAN_MOTION_DOT":5.18e-6,"MEAN_MOTION_DDOT":0},{"OBJECT_NAME":"SL-16 R/B","OBJECT_ID":"2000-006B","EPOCH":"2026-03-12T11:38:47.085216","MEAN_MOTION":14.15825371,"ECCENTRICITY":0.0016616,"INCLINATION":71.0006,"RA_OF_ASC_NODE":91.9589,"ARG_OF_PERICENTER":186.1025,"MEAN_ANOMALY":173.9898,"EPHEMERIS_TYPE":0,"CLASSIFICATION_TYPE":"U","NORAD_CAT_ID":26070,"ELEMENT_SET_NO":999,"REV_AT_EPOCH":34895,"BSTAR":-6.1237e-5,"MEAN_MOTION_DOT":-1.68e-6,"MEAN_MOTION_DDOT":0},{"OBJECT_NAME":"TITAN 4B R/B","OBJECT_ID":"2000-047B","EPOCH":"2026-03-12T22:38:08.351808","MEAN_MOTION":15.09598814,"ECCENTRICITY":0.00386738,"INCLINATION":67.9903,"RA_OF_ASC_NODE":31.3612,"ARG_OF_PERICENTER":31.5697,"MEAN_ANOMALY":328.7761,"EPHEMERIS_TYPE":0,"CLASSIFICATION_TYPE":"U","NORAD_CAT_ID":26474,"ELEMENT_SET_NO":999,"REV_AT_EPOCH":39340,"BSTAR":0.00031822267,"MEAN_MOTION_DOT":5.083e-5,"MEAN_MOTION_DDOT":0},{"OBJECT_NAME":"ENVISAT","OBJECT_ID":"2002-009A","EPOCH":"2026-03-12T20:55:01.119936","MEAN_MOTION":14.39038276,"ECCENTRICITY":0.00013202,"INCLINATION":98.3732,"RA_OF_ASC_NODE":25.3932,"ARG_OF_PERICENTER":83.3093,"MEAN_ANOMALY":294.1209,"EPHEMERIS_TYPE":0,"CLASSIFICATION_TYPE":"U","NORAD_CAT_ID":27386,"ELEMENT_SET_NO":999,"REV_AT_EPOCH":25963,"BSTAR":6.5678517e-5,"MEAN_MOTION_DOT":1.6e-6,"MEAN_MOTION_DDOT":0},{"OBJECT_NAME":"IDEFIX & ARIANE 42P R/B","OBJECT_ID":"2002-021B","EPOCH":"2026-03-12T18:46:13.376928","MEAN_MOTION":14.31028649,"ECCENTRICITY":0.00117581,"INCLINATION":98.587,"RA_OF_ASC_NODE":10.3514,"ARG_OF_PERICENTER":173.0588,"MEAN_ANOMALY":187.076,"EPHEMERIS_TYPE":0,"CLASSIFICATION_TYPE":"U","NORAD_CAT_ID":27422,"ELEMENT_SET_NO":999,"REV_AT_EPOCH":24446,"BSTAR":0.00014279117,"MEAN_MOTION_DOT":3.32e-6,"MEAN_MOTION_DDOT":0},{"OBJECT_NAME":"AQUA","OBJECT_ID":"2002-022A","EPOCH":"2026-03-12T23:10:57.518400","MEAN_MOTION":14.61986054,"ECCENTRICITY":5.817e-5,"INCLINATION":98.4179,"RA_OF_ASC_NODE":39.3906,"ARG_OF_PERICENTER":93.4732,"MEAN_ANOMALY":307.8118,"EPHEMERIS_TYPE":0,"CLASSIFICATION_TYPE":"U","NORAD_CAT_ID":27424,"ELEMENT_SET_NO":999,"REV_AT_EPOCH":26921,"BSTAR":0.00025893355,"MEAN_MOTION_DOT":1.249e-5,"MEAN_MOTION_DDOT":0},{"OBJECT_NAME":"CZ-4B R/B","OBJECT_ID":"2002-024C","EPOCH":"2026-03-12T18:28:33.893472","MEAN_MOTION":14.14548225,"ECCENTRICITY":0.00503407,"INCLINATION":98.8832,"RA_OF_ASC_NODE":125.1609,"ARG_OF_PERICENTER":15.5117,"MEAN_ANOMALY":93.0238,"EPHEMERIS_TYPE":0,"CLASSIFICATION_TYPE":"U","NORAD_CAT_ID":27432,"ELEMENT_SET_NO":999,"REV_AT_EPOCH":22967,"BSTAR":4.8379161e-5,"MEAN_MOTION_DOT":4.9e-7,"MEAN_MOTION_DDOT":0},{"OBJECT_NAME":"MIDORI II (ADEOS-II)","OBJECT_ID":"2002-056A","EPOCH":"2026-03-12T19:32:01.615776","MEAN_MOTION":14.29288057,"ECCENTRICITY":0.00014728,"INCLINATION":98.7771,"RA_OF_ASC_NODE":30.313,"ARG_OF_PERICENTER":39.0122,"MEAN_ANOMALY":321.1166,"EPHEMERIS_TYPE":0,"CLASSIFICATION_TYPE":"U","NORAD_CAT_ID":27597,"ELEMENT_SET_NO":999,"REV_AT_EPOCH":21074,"BSTAR":0.00017467963,"MEAN_MOTION_DOT":3.99e-6,"MEAN_MOTION_DDOT":0},{"OBJECT_NAME":"H-2A R/B","OBJECT_ID":"2002-056E","EPOCH":"2026-03-12T20:11:58.780320","MEAN_MOTION":14.33763149,"ECCENTRICITY":0.00706946,"INCLINATION":98.3206,"RA_OF_ASC_NODE":32.0873,"ARG_OF_PERICENTER":151.3349,"MEAN_ANOMALY":238.3866,"EPHEMERIS_TYPE":0,"CLASSIFICATION_TYPE":"U","NORAD_CAT_ID":27601,"ELEMENT_SET_NO":999,"REV_AT_EPOCH":21456,"BSTAR":0.00012924029,"MEAN_MOTION_DOT":3.28e-6,"MEAN_MOTION_DDOT":0},{"OBJECT_NAME":"CZ-4B R/B","OBJECT_ID":"2003-049C","EPOCH":"2026-03-12T13:07:26.945760","MEAN_MOTION":14.55023378,"ECCENTRICITY":0.0047354,"INCLINATION":98.688,"RA_OF_ASC_NODE":66.5637,"ARG_OF_PERICENTER":221.9948,"MEAN_ANOMALY":137.7613,"EPHEMERIS_TYPE":0,"CLASSIFICATION_TYPE":"U","NORAD_CAT_ID":28059,"ELEMENT_SET_NO":999,"REV_AT_EPOCH":18701,"BSTAR":0.00012323,"MEAN_MOTION_DOT":4.87e-6,"MEAN_MOTION_DDOT":0},{"OBJECT_NAME":"CZ-2C R/B","OBJECT_ID":"2004-012C","EPOCH":"2026-03-12T17:49:37.336800","MEAN_MOTION":15.64897873,"ECCENTRICITY":0.00129957,"INCLINATION":97.7224,"RA_OF_ASC_NODE":137.3253,"ARG_OF_PERICENTER":297.1576,"MEAN_ANOMALY":62.8357,"EPHEMERIS_TYPE":0,"CLASSIFICATION_TYPE":"U","NORAD_CAT_ID":28222,"ELEMENT_SET_NO":999,"REV_AT_EPOCH":20475,"BSTAR":0.00058433937,"MEAN_MOTION_DOT":0.0005748,"MEAN_MOTION_DDOT":0},{"OBJECT_NAME":"SL-16 R/B","OBJECT_ID":"2004-021B","EPOCH":"2026-03-12T17:02:05.663328","MEAN_MOTION":14.14596735,"ECCENTRICITY":0.00042544,"INCLINATION":70.9996,"RA_OF_ASC_NODE":226.1541,"ARG_OF_PERICENTER":4.8299,"MEAN_ANOMALY":355.2863,"EPHEMERIS_TYPE":0,"CLASSIFICATION_TYPE":"U","NORAD_CAT_ID":28353,"ELEMENT_SET_NO":999,"REV_AT_EPOCH":12326,"BSTAR":-0.00011680083,"MEAN_MOTION_DOT":-2.72e-6,"MEAN_MOTION_DDOT":0},{"OBJECT_NAME":"CZ-4B R/B","OBJECT_ID":"2004-035C","EPOCH":"2026-03-12T15:47:06.309888","MEAN_MOTION":15.29120497,"ECCENTRICITY":0.00307126,"INCLINATION":97.3503,"RA_OF_ASC_NODE":105.865,"ARG_OF_PERICENTER":320.6231,"MEAN_ANOMALY":39.2777,"EPHEMERIS_TYPE":0,"CLASSIFICATION_TYPE":"U","NORAD_CAT_ID":28415,"ELEMENT_SET_NO":999,"REV_AT_EPOCH":18036,"BSTAR":0.00030743211,"MEAN_MOTION_DOT":8.737e-5,"MEAN_MOTION_DDOT":0},{"OBJECT_NAME":"CZ-2C R/B","OBJECT_ID":"2004-046B","EPOCH":"2026-03-12T18:44:51.893088","MEAN_MOTION":14.26993278,"ECCENTRICITY":0.01400482,"INCLINATION":98.1981,"RA_OF_ASC_NODE":346.5727,"ARG_OF_PERICENTER":145.3368,"MEAN_ANOMALY":215.7041,"EPHEMERIS_TYPE":0,"CLASSIFICATION_TYPE":"U","NORAD_CAT_ID":28480,"ELEMENT_SET_NO":999,"REV_AT_EPOCH":10894,"BSTAR":6.6407786e-5,"MEAN_MOTION_DOT":1.39e-6,"MEAN_MOTION_DDOT":0},{"OBJECT_NAME":"ARIANE 5 R/B","OBJECT_ID":"2004-049H","EPOCH":"2026-03-12T22:24:31.387104","MEAN_MOTION":14.85272856,"ECCENTRICITY":0.00837071,"INCLINATION":98.2632,"RA_OF_ASC_NODE":240.5122,"ARG_OF_PERICENTER":341.382,"MEAN_ANOMALY":18.4336,"EPHEMERIS_TYPE":0,"CLASSIFICATION_TYPE":"U","NORAD_CAT_ID":28499,"ELEMENT_SET_NO":999,"REV_AT_EPOCH":14627,"BSTAR":0.00010890933,"MEAN_MOTION_DOT":9.3e-6,"MEAN_MOTION_DDOT":0},{"OBJECT_NAME":"CZ-2D R/B","OBJECT_ID":"2005-024B","EPOCH":"2026-03-12T14:17:20.146848","MEAN_MOTION":15.60430671,"ECCENTRICITY":0.00053693,"INCLINATION":97.3599,"RA_OF_ASC_NODE":86.8489,"ARG_OF_PERICENTER":39.5162,"MEAN_ANOMALY":320.6486,"EPHEMERIS_TYPE":0,"CLASSIFICATION_TYPE":"U","NORAD_CAT_ID":28738,"ELEMENT_SET_NO":999,"REV_AT_EPOCH":14023,"BSTAR":0.0005409017,"MEAN_MOTION_DOT":0.00044496,"MEAN_MOTION_DDOT":0}]
